IRIDIUM 150             
1 43257U 18030J   25179.14267798  .00000061  00000+0  14731-4 0  9997
2 43257  86.3956  78.4851 0002092  77.2778 282.8652 14.34217907379431
IRIDIUM 143             
1 43258U 18030K   25179.19341833  .00000015  00000+0 -15939-5 0  9998
2 43258  86.3958  78.5425 0001828  71.3477 288.7918 14.34217662379381
IRIDIUM 161             
1 43478U 18047C   25178.54177394 -.00000084  00000+0 -30977-4 0  9992
2 43478  86.4490 236.6108 0002457  97.8588 262.2892 14.43285148373989
IRIDIUM 152             
1 43479U 18047D   25179.16613775  .00000142  00000+0  43514-4 0  9994
2 43479  86.3961 236.2102 0002456  94.5910 265.5567 14.34217899371750
IRIDIUM 147             
1 43480U 18047E   25179.52132219  .00000048  00000+0  10143-4 0  9992
2 43480  86.3963 236.0610 0002293  97.2309 262.9148 14.34217986371794
IRIDIUM 110             
1 43481U 18047F   25179.17882318  .00000032  00000+0  42275-5 0  9991
2 43481  86.3966 236.2868 0002698 100.9783 259.1717 14.34217845371730
IRIDIUM 162             
1 43482U 18047G   25178.60480581  .00000093  00000+0  21738-4 0  9992
2 43482  86.4486 236.4795 0002721  94.8588 265.2924 14.43286814373980
IRIDIUM 160             
1 43569U 18061A   25178.77581656 -.00000019  00000+0 -13925-4 0  9996
2 43569  86.3987 204.8581 0002349  95.6063 264.5401 14.34217407362573
